{
  "links" : {
    "next" : "https://api.nasa.gov/neo/rest/v1/feed?start_date=1995-02-16&end_date=1995-02-16&detailed=true&api_key=t0TVs3DtDT2H8Oy2Zy8m2eVrNsAVKAexjcZXUckd",
    "prev" : "https://api.nasa.gov/neo/rest/v1/feed?start_date=1995-02-14&end_date=1995-02-14&detailed=true&api_key=t0TVs3DtDT2H8Oy2Zy8m2eVrNsAVKAexjcZXUckd",
    "self" : "https://api.nasa.gov/neo/rest/v1/feed?start_date=1995-02-15&end_date=1995-02-15&detailed=true&api_key=t0TVs3DtDT2H8Oy2Zy8m2eVrNsAVKAexjcZXUckd"
  },
  "element_count" : 6,
  "near_earth_objects" : {
    "1995-02-15" : [ {
      "links" : {
        "self" : "https://api.nasa.gov/neo/rest/v1/neo/3314405?api_key=t0TVs3DtDT2H8Oy2Zy8m2eVrNsAVKAexjcZXUckd"
      },
      "neo_reference_id" : "3314405",
      "name" : "(2006 BX139)",
      "nasa_jpl_url" : "http://ssd.jpl.nasa.gov/sbdb.cgi?sstr=3314405",
      "absolute_magnitude_h" : 20.0,
      "estimated_diameter" : {
        "kilometers" : {
          "estimated_diameter_min" : 0.2658,
          "estimated_diameter_max" : 0.5943468684
        },
        "meters" : {
          "estimated_diameter_min" : 265.8,
          "estimated_diameter_max" : 594.3468684194
        },
        "miles" : {
          "estimated_diameter_min" : 0.1651604118,
          "estimated_diameter_max" : 0.369309908
        },
        "feet" : {
          "estimated_diameter_min" : 872.047272,
          "estimated_diameter_max" : 1949.9569797852
        }
      },
      "is_potentially_hazardous_asteroid" : false,
      "close_approach_data" : [ {
        "close_approach_date" : "1995-02-15",
        "epoch_date_close_approach" : 792835200000,
        "relative_velocity" : {
          "kilometers_per_second" : "3.0890039286",
          "kilometers_per_hour" : "11120.4141428446",
          "miles_per_hour" : "6909.7928878136"
        },
        "miss_distance" : {
          "astronomical" : "0.2388244997",
          "lunar" : "92.9027328491",
          "kilometers" : "35727636",
          "miles" : "22200124"
        },
        "orbiting_body" : "Earth"
      } ],
      "orbital_data" : {
        "orbit_id" : "27",
        "orbit_determination_date" : "2017-05-18 06:19:30",
        "orbit_uncertainty" : "0",
        "minimum_orbit_intersection" : ".240288",
        "jupiter_tisserand_invariant" : "3.788",
        "epoch_osculation" : "2458000.5",
        "eccentricity" : ".3775493600967308",
        "semi_major_axis" : "1.958154259500409",
        "inclination" : "5.660561156228656",
        "ascending_node_longitude" : "112.1644170272148",
        "orbital_period" : "1000.849506520639",
        "perihelion_distance" : "1.218854371855342",
        "perihelion_argument" : "34.30691815167334",
        "aphelion_distance" : "2.697454147145476",
        "perihelion_time" : "2457771.553383359465",
        "mean_anomaly" : "82.35082442826075",
        "mean_motion" : ".3596944372301356",
        "equinox" : "J2000"
      }
    }, {
      "links" : {
        "self" : "https://api.nasa.gov/neo/rest/v1/neo/3426410?api_key=t0TVs3DtDT2H8Oy2Zy8m2eVrNsAVKAexjcZXUckd"
      },
      "neo_reference_id" : "3426410",
      "name" : "(2008 QV11)",
      "nasa_jpl_url" : "http://ssd.jpl.nasa.gov/sbdb.cgi?sstr=3426410",
      "absolute_magnitude_h" : 21.0,
      "estimated_diameter" : {
        "kilometers" : {
          "estimated_diameter_min" : 0.1677084622,
          "estimated_diameter_max" : 0.3750075218
        },
        "meters" : {
          "estimated_diameter_min" : 167.7084621628,
          "estimated_diameter_max" : 375.0075217981
        },
        "miles" : {
          "estimated_diameter_min" : 0.1042091748,
          "estimated_diameter_max" : 0.2330187988
        },
        "feet" : {
          "estimated_diameter_min" : 550.2246310023,
          "estimated_diameter_max" : 1230.3396778159
        }
      },
      "is_potentially_hazardous_asteroid" : false,
      "close_approach_data" : [ {
        "close_approach_date" : "1995-02-15",
        "epoch_date_close_approach" : 792835200000,
        "relative_velocity" : {
          "kilometers_per_second" : "20.0192419349",
          "kilometers_per_hour" : "72069.2709657714",
          "miles_per_hour" : "44781.0422842595"
        },
        "miss_distance" : {
          "astronomical" : "0.4780869949",
          "lunar" : "185.9758453369",
          "kilometers" : "71520800",
          "miles" : "44440964"
        },
        "orbiting_body" : "Earth"
      } ],
      "orbital_data" : {
        "orbit_id" : "16",
        "orbit_determination_date" : "2017-04-06 09:03:02",
        "orbit_uncertainty" : "1",
        "minimum_orbit_intersection" : ".0984179",
        "jupiter_tisserand_invariant" : "6.469",
        "epoch_osculation" : "2458000.5",
        "eccentricity" : ".4527922930841961",
        "semi_major_axis" : ".907864592986423",
        "inclination" : "8.278695740027688",
        "ascending_node_longitude" : "114.3798292883882",
        "orbital_period" : "315.9585012447702",
        "perihelion_distance" : ".4967905021181501",
        "perihelion_argument" : "7.392326563703367",
        "aphelion_distance" : "1.318938683854696",
        "perihelion_time" : "2457968.757085862307",
        "mean_anomaly" : "36.16756328615697",
        "mean_motion" : "1.139390136937988",
        "equinox" : "J2000"
      }
    }, {
      "links" : {
        "self" : "https://api.nasa.gov/neo/rest/v1/neo/3666785?api_key=t0TVs3DtDT2H8Oy2Zy8m2eVrNsAVKAexjcZXUckd"
      },
      "neo_reference_id" : "3666785",
      "name" : "(2014 FP47)",
      "nasa_jpl_url" : "http://ssd.jpl.nasa.gov/sbdb.cgi?sstr=3666785",
      "absolute_magnitude_h" : 22.3,
      "estimated_diameter" : {
        "kilometers" : {
          "estimated_diameter_min" : 0.0921626549,
          "estimated_diameter_max" : 0.2060819612
        },
        "meters" : {
          "estimated_diameter_min" : 92.1626548503,
          "estimated_diameter_max" : 206.0819612321
        },
        "miles" : {
          "estimated_diameter_min" : 0.057267201,
          "estimated_diameter_max" : 0.1280533543
        },
        "feet" : {
          "estimated_diameter_min" : 302.370924539,
          "estimated_diameter_max" : 676.1219416887
        }
      },
      "is_potentially_hazardous_asteroid" : false,
      "close_approach_data" : [ {
        "close_approach_date" : "1995-02-15",
        "epoch_date_close_approach" : 792835200000,
        "relative_velocity" : {
          "kilometers_per_second" : "8.5263208443",
          "kilometers_per_hour" : "30694.755039371",
          "miles_per_hour" : "19072.527096547"
        },
        "miss_distance" : {
          "astronomical" : "0.4612592433",
          "lunar" : "179.4298400879",
          "kilometers" : "69003400",
          "miles" : "42876724"
        },
        "orbiting_body" : "Earth"
      } ],
      "orbital_data" : {
        "orbit_id" : "29",
        "orbit_determination_date" : "2017-04-06 08:41:50",
        "orbit_uncertainty" : "3",
        "minimum_orbit_intersection" : ".0259126",
        "jupiter_tisserand_invariant" : "5.372",
        "epoch_osculation" : "2458000.5",
        "eccentricity" : ".2597323195329087",
        "semi_major_axis" : "1.16651991571092",
        "inclination" : "5.035044225594919",
        "ascending_node_longitude" : "28.8520216092119",
        "orbital_period" : "460.1894557939667",
        "perihelion_distance" : ".8635369922219897",
        "perihelion_argument" : "271.6146744029957",
        "aphelion_distance" : "1.46950283919985",
        "perihelion_time" : "2457770.912607255688",
        "mean_anomaly" : "179.6031185576674",
        "mean_motion" : ".7822865028032653",
        "equinox" : "J2000"
      }
    } ]
  }
}